ONEWEB-0247             
1 48777U 21045L   23342.71276280  .00000003  00000+0 -27270-4 0  9997
2 48777  87.9013  82.6500 0001062 154.3019 205.8164 13.15549676123252
ONEWEB-0245             
1 48778U 21045M   23342.70801093 -.00000241  00000+0 -67309-3 0  9994
2 48778  87.9006  82.6561 0001806 112.3710 247.7612 13.15546583123224
ONEWEB-0229             
1 48779U 21045N   23342.70326677 -.00000141  00000+0 -40785-3 0  9993
2 48779  87.9006  82.6483 0001366 103.2426 256.8857 13.15547582123257
ONEWEB-0228             
1 48780U 21045P   23341.34611228  .00000246  00000+0  62023-3 0  9996
2 48780  87.9011  82.8995 0003031 122.8911 237.2511 13.15548904122991
ONEWEB-0232             
1 48781U 21045Q   23342.33090520  .00000036  00000+0  62459-4 0  9994
2 48781  87.8954  82.7400 0001609 108.7262 251.4043 13.15549316123445
ONEWEB-0231             
1 48782U 21045R   23342.68901210 -.00000188  00000+0 -53284-3 0  9995
2 48782  87.9014  82.6606 0002563 123.6354 236.5022 13.15548514123180
ONEWEB-0234             
1 48783U 21045S   23341.72314009  .00010293  00000+0  27241-1 0  9992
2 48783  87.9014  82.8306 0004026 112.2370 247.9187 13.15632716123195
ONEWEB-0238             
1 48784U 21045T   23342.73888076  .00000104  00000+0  24177-3 0  9992
2 48784  87.9016  82.6464 0001866 106.0962 254.0374 13.15541665123221
